     3.03           N: GNSS NAV DATA    R: GLONASS          RINEX VERSION / TYPE
gl_Rinex            NMA                 20220102 035911 UTC PGM / RUN BY / DATE 
GLUT  9.3132257462E-10 0.000000000E+00 519318 2190          TIME SYSTEM CORR    
    18                                                      LEAP SECONDS        
                                                            END OF HEADER       
R02 2022 01 01 02 45 00 5.050990730524E-04 1.818989403546E-12 1.020000000000E+04
     1.812457177734E+04-2.352446556091E+00 0.000000000000E+00 0.000000000000E+00
     4.139713867188E+03 4.426050186157E-01-4.656612873077E-09-4.000000000000E+00
     1.753635839844E+04 2.325527191162E+00-0.000000000000E+00 0.000000000000E+00
R17 2022 01 01 02 45 00 4.885988309979E-04 2.728484105319E-12 1.020000000000E+04
     1.659378076172E+04 1.862442016602E+00 0.000000000000E+00 0.000000000000E+00
     5.094170898438E+03 1.761447906494E+00-3.725290298462E-09 4.000000000000E+00
     1.868938623047E+04-2.138823509216E+00-0.000000000000E+00 0.000000000000E+00
R19 2022 01 01 02 45 00-1.727510243654E-04-9.094947017729E-13 1.020000000000E+04
    -6.882773437500E+03 1.339318275452E+00 3.725290298462E-09 0.000000000000E+00
    -1.849014453125E+04 1.777328491211E+00-2.793967723846E-09 3.000000000000E+00
     1.617753662109E+04 2.601653099060E+00 0.000000000000E+00 0.000000000000E+00
R01 2022 01 01 02 45 00 7.305294275284E-06-0.000000000000E+00 1.020000000000E+04
    -1.805137695312E+03-2.975319862366E+00 0.000000000000E+00 0.000000000000E+00
     1.173604101562E+04 8.372154235840E-01-9.313225746155E-10 1.000000000000E+00
     2.257363720703E+04-6.723461151123E-01-2.793967723846E-09 0.000000000000E+00
R18 2022 01 01 02 45 00 1.023653894663E-04 9.094947017729E-13 1.020000000000E+04
     5.752702636719E+03 2.154966354370E+00 2.793967723846E-09 0.000000000000E+00
    -9.059535156250E+03 2.325248718262E+00-4.656612873077E-09-3.000000000000E+00
     2.315861328125E+04 3.792314529419E-01 0.000000000000E+00 0.000000000000E+00
R10 2022 01 01 02 45 00-7.850863039494E-05-0.000000000000E+00 1.020000000000E+04
    -1.230512646484E+04 8.221855163574E-01 9.313225746155E-10 0.000000000000E+00
     6.132823242188E+03-2.825790405273E+00-0.000000000000E+00-7.000000000000E+00
     2.145662890625E+04 1.285699844360E+00-2.793967723846E-09 0.000000000000E+00
R03 2022 01 01 02 45 00 4.915520548820E-05 9.094947017729E-13 1.023000000000E+04
     2.493029638672E+04-3.049840927124E-01 0.000000000000E+00 0.000000000000E+00
    -5.178682617188E+03-9.912490844727E-02-4.656612873077E-09 5.000000000000E+00
     2.030985839844E+03 3.553127288818E+00 1.862645149231E-09 0.000000000000E+00
R24 2022 01 01 02 45 00 7.369183003902E-05 1.818989403546E-12 1.050000000000E+04
     1.840454443359E+04 4.743051528931E-01-2.793967723846E-09 0.000000000000E+00
     1.726527783203E+04 2.458705902100E-01-9.313225746155E-10 2.000000000000E+00
     3.695166992188E+03-3.534761428833E+00-9.313225746155E-10 0.000000000000E+00
R09 2022 01 01 02 45 00 3.173016011715E-05 1.818989403546E-12 1.050000000000E+04
    -7.984161132812E+03 7.289943695068E-01 3.725290298462E-09 0.000000000000E+00
    -1.116767236328E+04-2.847883224487E+00-2.793967723846E-09-2.000000000000E+00
     2.149848828125E+04-1.215737342834E+00-0.000000000000E+00 0.000000000000E+00
R02 2022 01 01 02 45 00 5.050990730524E-04 1.818989403546E-12 1.050000000000E+04
     1.812457177734E+04-2.352446556091E+00 0.000000000000E+00 0.000000000000E+00
     4.139713867188E+03 4.426050186157E-01-4.656612873077E-09-4.000000000000E+00
     1.753635839844E+04 2.325527191162E+00-0.000000000000E+00 0.000000000000E+00
R17 2022 01 01 02 45 00 4.885988309979E-04 2.728484105319E-12 1.050000000000E+04
     1.659378076172E+04 1.862442016602E+00 0.000000000000E+00 0.000000000000E+00
     5.094170898438E+03 1.761447906494E+00-3.725290298462E-09 4.000000000000E+00
     1.868938623047E+04-2.138823509216E+00-0.000000000000E+00 0.000000000000E+00
R19 2022 01 01 02 45 00-1.727510243654E-04-9.094947017729E-13 1.050000000000E+04
    -6.882773437500E+03 1.339318275452E+00 3.725290298462E-09 0.000000000000E+00
    -1.849014453125E+04 1.777328491211E+00-2.793967723846E-09 3.000000000000E+00
     1.617753662109E+04 2.601653099060E+00 0.000000000000E+00 0.000000000000E+00
R01 2022 01 01 02 45 00 7.305294275284E-06-0.000000000000E+00 1.050000000000E+04
    -1.805137695312E+03-2.975319862366E+00 0.000000000000E+00 0.000000000000E+00
     1.173604101562E+04 8.372154235840E-01-9.313225746155E-10 1.000000000000E+00
     2.257363720703E+04-6.723461151123E-01-2.793967723846E-09 0.000000000000E+00
R18 2022 01 01 02 45 00 1.023653894663E-04 9.094947017729E-13 1.050000000000E+04
     5.752702636719E+03 2.154966354370E+00 2.793967723846E-09 0.000000000000E+00
    -9.059535156250E+03 2.325248718262E+00-4.656612873077E-09-3.000000000000E+00
     2.315861328125E+04 3.792314529419E-01 0.000000000000E+00 0.000000000000E+00
R10 2022 01 01 02 45 00-7.850863039494E-05-0.000000000000E+00 1.050000000000E+04
    -1.230512646484E+04 8.221855163574E-01 9.313225746155E-10 0.000000000000E+00
     6.132823242188E+03-2.825790405273E+00-0.000000000000E+00-7.000000000000E+00
     2.145662890625E+04 1.285699844360E+00-2.793967723846E-09 0.000000000000E+00
R03 2022 01 01 02 45 00 4.915520548820E-05 9.094947017729E-13 1.053000000000E+04
     2.493029638672E+04-3.049840927124E-01 0.000000000000E+00 0.000000000000E+00
    -5.178682617188E+03-9.912490844727E-02-4.656612873077E-09 5.000000000000E+00
     2.030985839844E+03 3.553127288818E+00 1.862645149231E-09 0.000000000000E+00
R24 2022 01 01 03 15 00 7.369462400675E-05 1.818989403546E-12 1.080000000000E+04
     1.869973046875E+04-1.755342483521E-01-3.725290298462E-09 0.000000000000E+00
     1.711853662109E+04-3.796548843384E-01 0.000000000000E+00 2.000000000000E+00
    -2.728094238281E+03-3.555809020996E+00-9.313225746155E-10 0.000000000000E+00
R09 2022 01 01 03 15 00 3.173854202032E-05 1.818989403546E-12 1.080000000000E+04
    -7.093666015625E+03 2.699890136719E-01 2.793967723846E-09 0.000000000000E+00
    -1.603982714844E+04-2.517936706543E+00-3.725290298462E-09-2.000000000000E+00
     1.850708398438E+04-2.086644172668E+00 0.000000000000E+00 0.000000000000E+00
R02 2022 01 01 03 15 00 5.051018670201E-04 1.818989403546E-12 1.080000000000E+04
     1.353355224609E+04-2.700590133667E+00-0.000000000000E+00 0.000000000000E+00
     5.390584960938E+03 9.555416107178E-01-3.725290298462E-09-4.000000000000E+00
     2.099444287109E+04 1.491937637329E+00-9.313225746155E-10 0.000000000000E+00
R17 2022 01 01 03 15 00 4.886081442237E-04 2.728484105319E-12 1.080000000000E+04
     1.977317626953E+04 1.622292518616E+00-9.313225746155E-10 0.000000000000E+00
     7.654646484375E+03 1.079622268677E+00-2.793967723846E-09 4.000000000000E+00
     1.416649218750E+04-2.854071617126E+00-0.000000000000E+00 0.000000000000E+00
R19 2022 01 01 03 15 00-1.727528870106E-04-9.094947017729E-13 1.080000000000E+04
    -3.855748535156E+03 2.012498855591E+00 2.793967723846E-09 0.000000000000E+00
    -1.513544433594E+04 1.901713371277E+00-4.656612873077E-09 3.000000000000E+00
     2.017513476562E+04 1.811322212219E+00 0.000000000000E+00 0.000000000000E+00
R01 2022 01 01 03 15 00 7.305294275284E-06-0.000000000000E+00 1.080000000000E+04
    -6.828096679688E+03-2.563965797424E+00 0.000000000000E+00 0.000000000000E+00
     1.354627294922E+04 1.145932197571E+00-0.000000000000E+00 1.000000000000E+00
     2.050638232422E+04-1.609673500061E+00-3.725290298462E-09 0.000000000000E+00
R18 2022 01 01 03 15 00 1.023681834340E-04 9.094947017729E-13 1.080000000000E+04
     9.941352050781E+03 2.459254264832E+00 9.313225746155E-10 0.000000000000E+00
    -5.179034179688E+03 1.951278686523E+00-4.656612873077E-09-3.000000000000E+00
     2.293930859375E+04-6.211824417114E-01-0.000000000000E+00 0.000000000000E+00
R10 2022 01 01 03 15 00-7.850956171751E-05-0.000000000000E+00 1.080000000000E+04
    -1.116038232422E+04 4.307022094727E-01 1.862645149231E-09 0.000000000000E+00
     7.475341796875E+02-3.110297203064E+00-1.862645149231E-09-7.000000000000E+00
     2.290954492188E+04 3.183584213257E-01-1.862645149231E-09 0.000000000000E+00
R03 2022 01 01 03 15 00 4.915706813335E-05 9.094947017729E-13 1.080000000000E+04
     2.364061035156E+04-1.104776382446E+00-0.000000000000E+00 0.000000000000E+00
    -5.062958496094E+03 2.621297836304E-01-4.656612873077E-09 5.000000000000E+00
     8.266171386719E+03 3.330103874207E+00 9.313225746155E-10 0.000000000000E+00
R03 2022 01 01 03 15 00 4.915706813335E-05 9.094947017729E-13 1.083000000000E+04
     2.364061035156E+04-1.104776382446E+00-0.000000000000E+00 0.000000000000E+00
    -5.062958496094E+03 2.621297836304E-01-4.656612873077E-09 5.000000000000E+00
     8.266171386719E+03 3.330103874207E+00 9.313225746155E-10 0.000000000000E+00
R24 2022 01 01 03 15 00 7.369462400675E-05 1.818989403546E-12 1.110000000000E+04
     1.869973046875E+04-1.755342483521E-01-3.725290298462E-09 0.000000000000E+00
     1.711853662109E+04-3.796548843384E-01 0.000000000000E+00 2.000000000000E+00
    -2.728094238281E+03-3.555809020996E+00-9.313225746155E-10 0.000000000000E+00
R09 2022 01 01 03 15 00 3.173854202032E-05 1.818989403546E-12 1.110000000000E+04
    -7.093666015625E+03 2.699890136719E-01 2.793967723846E-09 0.000000000000E+00
    -1.603982714844E+04-2.517936706543E+00-3.725290298462E-09-2.000000000000E+00
     1.850708398438E+04-2.086644172668E+00 0.000000000000E+00 0.000000000000E+00
R02 2022 01 01 03 15 00 5.051018670201E-04 1.818989403546E-12 1.110000000000E+04
     1.353355224609E+04-2.700590133667E+00-0.000000000000E+00 0.000000000000E+00
     5.390584960938E+03 9.555416107178E-01-3.725290298462E-09-4.000000000000E+00
     2.099444287109E+04 1.491937637329E+00-9.313225746155E-10 0.000000000000E+00
